[{"OBJECT_NAME":"STARLINK-36743","OBJECT_ID":"2026-034AC","EPOCH":"2026-03-15T06:36:38.716704","MEAN_MOTION":15.81169927,"ECCENTRICITY":0.00011177,"INCLINATION":53.1586,"RA_OF_ASC_NODE":183.1326,"ARG_OF_PERICENTER":151.219,"MEAN_ANOMALY":208.8895,"EPHEMERIS_TYPE":0,"CLASSIFICATION_TYPE":"U","NORAD_CAT_ID":67876,"ELEMENT_SET_NO":999,"REV_AT_EPOCH":482,"BSTAR":0.0026815247,"MEAN_MOTION_DOT":0.0057301,"MEAN_MOTION_DDOT":0},{"OBJECT_NAME":"STARLINK-36784","OBJECT_ID":"2026-034AD","EPOCH":"2026-03-14T16:56:13.016544","MEAN_MOTION":15.80973076,"ECCENTRICITY":0.00015416,"INCLINATION":53.1585,"RA_OF_ASC_NODE":185.9782,"ARG_OF_PERICENTER":91.0096,"MEAN_ANOMALY":269.1103,"EPHEMERIS_TYPE":0,"CLASSIFICATION_TYPE":"U","NORAD_CAT_ID":67877,"ELEMENT_SET_NO":999,"REV_AT_EPOCH":473,"BSTAR":0.0024433295,"MEAN_MOTION_DOT":0.00513711,"MEAN_MOTION_DDOT":0},{"OBJECT_NAME":"STARLINK-36689","OBJECT_ID":"2026-034AE","EPOCH":"2026-03-15T06:34:28.899840","MEAN_MOTION":15.80859989,"ECCENTRICITY":0.00010751,"INCLINATION":53.1583,"RA_OF_ASC_NODE":183.1219,"ARG_OF_PERICENTER":97.4161,"MEAN_ANOMALY":262.6984,"EPHEMERIS_TYPE":0,"CLASSIFICATION_TYPE":"U","NORAD_CAT_ID":67878,"ELEMENT_SET_NO":999,"REV_AT_EPOCH":482,"BSTAR":0.0011720438,"MEAN_MOTION_DOT":0.0023694,"MEAN_MOTION_DDOT":0},{"OBJECT_NAME":"STARLINK-36818","OBJECT_ID":"2026-035A","EPOCH":"2026-03-15T06:00:00.999648","MEAN_MOTION":15.75135325,"ECCENTRICITY":0.00011201,"INCLINATION":97.2863,"RA_OF_ASC_NODE":6.9028,"ARG_OF_PERICENTER":101.6297,"MEAN_ANOMALY":37.999,"EPHEMERIS_TYPE":0,"CLASSIFICATION_TYPE":"U","NORAD_CAT_ID":67879,"ELEMENT_SET_NO":999,"REV_AT_EPOCH":465,"BSTAR":0.0010130747,"MEAN_MOTION_DOT":0.00153356,"MEAN_MOTION_DDOT":0},{"OBJECT_NAME":"STARLINK-36821","OBJECT_ID":"2026-035B","EPOCH":"2026-03-15T06:00:00.999648","MEAN_MOTION":15.75162241,"ECCENTRICITY":0.00010552,"INCLINATION":97.2861,"RA_OF_ASC_NODE":6.9082,"ARG_OF_PERICENTER":95.1787,"MEAN_ANOMALY":60.4588,"EPHEMERIS_TYPE":0,"CLASSIFICATION_TYPE":"U","NORAD_CAT_ID":67880,"ELEMENT_SET_NO":999,"REV_AT_EPOCH":465,"BSTAR":0.00031485762,"MEAN_MOTION_DOT":0.00047035,"MEAN_MOTION_DDOT":0},{"OBJECT_NAME":"STARLINK-36808","OBJECT_ID":"2026-035C","EPOCH":"2026-03-15T06:00:00.999648","MEAN_MOTION":15.80754627,"ECCENTRICITY":0.00013151,"INCLINATION":97.2872,"RA_OF_ASC_NODE":6.9078,"ARG_OF_PERICENTER":92.9216,"MEAN_ANOMALY":70.8029,"EPHEMERIS_TYPE":0,"CLASSIFICATION_TYPE":"U","NORAD_CAT_ID":67881,"ELEMENT_SET_NO":999,"REV_AT_EPOCH":465,"BSTAR":0.0010394304,"MEAN_MOTION_DOT":0.00203093,"MEAN_MOTION_DDOT":0},{"OBJECT_NAME":"STARLINK-36817","OBJECT_ID":"2026-035D","EPOCH":"2026-03-15T06:00:00.999648","MEAN_MOTION":15.8078626,"ECCENTRICITY":0.00012356,"INCLINATION":97.2875,"RA_OF_ASC_NODE":6.9118,"ARG_OF_PERICENTER":138.1691,"MEAN_ANOMALY":38.3764,"EPHEMERIS_TYPE":0,"CLASSIFICATION_TYPE":"U","NORAD_CAT_ID":67882,"ELEMENT_SET_NO":999,"REV_AT_EPOCH":465,"BSTAR":0.00064002002,"MEAN_MOTION_DOT":0.0012404,"MEAN_MOTION_DDOT":0},{"OBJECT_NAME":"STARLINK-36856","OBJECT_ID":"2026-035E","EPOCH":"2026-03-15T06:00:00.999648","MEAN_MOTION":15.80777217,"ECCENTRICITY":0.00010909,"INCLINATION":97.2873,"RA_OF_ASC_NODE":6.9101,"ARG_OF_PERICENTER":132.2569,"MEAN_ANOMALY":40.0085,"EPHEMERIS_TYPE":0,"CLASSIFICATION_TYPE":"U","NORAD_CAT_ID":67883,"ELEMENT_SET_NO":999,"REV_AT_EPOCH":465,"BSTAR":0.00087964986,"MEAN_MOTION_DOT":0.00171399,"MEAN_MOTION_DDOT":0},{"OBJECT_NAME":"STARLINK-36842","OBJECT_ID":"2026-035F","EPOCH":"2026-03-15T06:00:00.999648","MEAN_MOTION":15.75683443,"ECCENTRICITY":0.00014567,"INCLINATION":97.286,"RA_OF_ASC_NODE":6.9128,"ARG_OF_PERICENTER":89.0481,"MEAN_ANOMALY":82.3013,"EPHEMERIS_TYPE":0,"CLASSIFICATION_TYPE":"U","NORAD_CAT_ID":67884,"ELEMENT_SET_NO":999,"REV_AT_EPOCH":465,"BSTAR":-0.0047559646,"MEAN_MOTION_DOT":-0.00670785,"MEAN_MOTION_DDOT":0},{"OBJECT_NAME":"STARLINK-36826","OBJECT_ID":"2026-035G","EPOCH":"2026-03-15T06:00:00.999648","MEAN_MOTION":15.80752353,"ECCENTRICITY":0.00011556,"INCLINATION":97.2876,"RA_OF_ASC_NODE":6.9153,"ARG_OF_PERICENTER":55.2695,"MEAN_ANOMALY":129.8272,"EPHEMERIS_TYPE":0,"CLASSIFICATION_TYPE":"U","NORAD_CAT_ID":67885,"ELEMENT_SET_NO":999,"REV_AT_EPOCH":465,"BSTAR":0.0010811883,"MEAN_MOTION_DOT":0.00211439,"MEAN_MOTION_DDOT":0},{"OBJECT_NAME":"STARLINK-36390","OBJECT_ID":"2026-035H","EPOCH":"2026-03-15T06:00:00.999648","MEAN_MOTION":15.76817696,"ECCENTRICITY":0.00015342,"INCLINATION":97.2863,"RA_OF_ASC_NODE":6.9169,"ARG_OF_PERICENTER":115.9051,"MEAN_ANOMALY":66.6039,"EPHEMERIS_TYPE":0,"CLASSIFICATION_TYPE":"U","NORAD_CAT_ID":67886,"ELEMENT_SET_NO":999,"REV_AT_EPOCH":470,"BSTAR":-0.013452817,"MEAN_MOTION_DOT":-0.01881397,"MEAN_MOTION_DDOT":0},{"OBJECT_NAME":"STARLINK-36368","OBJECT_ID":"2026-035J","EPOCH":"2026-03-15T06:00:00.999648","MEAN_MOTION":15.80747141,"ECCENTRICITY":0.00015373,"INCLINATION":97.2874,"RA_OF_ASC_NODE":6.9182,"ARG_OF_PERICENTER":121.6031,"MEAN_ANOMALY":72.0587,"EPHEMERIS_TYPE":0,"CLASSIFICATION_TYPE":"U","NORAD_CAT_ID":67887,"ELEMENT_SET_NO":999,"REV_AT_EPOCH":465,"BSTAR":0.00095361147,"MEAN_MOTION_DOT":0.0018588,"MEAN_MOTION_DDOT":0},{"OBJECT_NAME":"STARLINK-36801","OBJECT_ID":"2026-035K","EPOCH":"2026-03-15T06:00:00.999648","MEAN_MOTION":15.80740957,"ECCENTRICITY":0.00014532,"INCLINATION":97.2877,"RA_OF_ASC_NODE":6.9196,"ARG_OF_PERICENTER":121.4119,"MEAN_ANOMALY":76.5046,"EPHEMERIS_TYPE":0,"CLASSIFICATION_TYPE":"U","NORAD_CAT_ID":67888,"ELEMENT_SET_NO":999,"REV_AT_EPOCH":465,"BSTAR":0.0012314868,"MEAN_MOTION_DOT":0.00241568,"MEAN_MOTION_DDOT":0},{"OBJECT_NAME":"STARLINK-36372","OBJECT_ID":"2026-035L","EPOCH":"2026-03-15T06:38:56.269824","MEAN_MOTION":15.8092694,"ECCENTRICITY":0.00019328,"INCLINATION":97.2846,"RA_OF_ASC_NODE":6.9487,"ARG_OF_PERICENTER":44.1574,"MEAN_ANOMALY":315.9848,"EPHEMERIS_TYPE":0,"CLASSIFICATION_TYPE":"U","NORAD_CAT_ID":67889,"ELEMENT_SET_NO":999,"REV_AT_EPOCH":472,"BSTAR":0.0022348675,"MEAN_MOTION_DOT":0.00453234,"MEAN_MOTION_DDOT":0},{"OBJECT_NAME":"STARLINK-36363","OBJECT_ID":"2026-035M","EPOCH":"2026-03-15T06:00:00.999648","MEAN_MOTION":15.78280901,"ECCENTRICITY":0.00020548,"INCLINATION":97.2861,"RA_OF_ASC_NODE":6.9211,"ARG_OF_PERICENTER":104.7031,"MEAN_ANOMALY":94.8098,"EPHEMERIS_TYPE":0,"CLASSIFICATION_TYPE":"U","NORAD_CAT_ID":67890,"ELEMENT_SET_NO":999,"REV_AT_EPOCH":465,"BSTAR":-0.012573238,"MEAN_MOTION_DOT":-0.01878578,"MEAN_MOTION_DDOT":0},{"OBJECT_NAME":"STARLINK-36816","OBJECT_ID":"2026-035N","EPOCH":"2026-03-15T06:24:51.443712","MEAN_MOTION":15.80853647,"ECCENTRICITY":0.00011615,"INCLINATION":97.2859,"RA_OF_ASC_NODE":6.9594,"ARG_OF_PERICENTER":11.4749,"MEAN_ANOMALY":348.6546,"EPHEMERIS_TYPE":0,"CLASSIFICATION_TYPE":"U","NORAD_CAT_ID":67891,"ELEMENT_SET_NO":999,"REV_AT_EPOCH":472,"BSTAR":0.0020044877,"MEAN_MOTION_DOT":0.00402787,"MEAN_MOTION_DDOT":0}]
