STARLINK-36743          
1 67876U 26034AC  26074.27544811  .00573010  00000+0  26815-2 0  9999
2 67876  53.1586 183.1326 0001117 151.2190 208.8895 15.81169927  4820
STARLINK-36784          
1 67877U 26034AD  26073.70570621  .00513711  00000+0  24433-2 0  9991
2 67877  53.1585 185.9782 0001541  91.0096 269.1103 15.80973076  4732
STARLINK-36689          
1 67878U 26034AE  26074.27394560  .00236940  00000+0  11720-2 0  9992
2 67878  53.1583 183.1219 0001075  97.4161 262.6984 15.80859989  4822
STARLINK-36818          
1 67879U 26035A   26074.25001157  .00153356  00000+0  10131-2 0  9993
2 67879  97.2863   6.9028 0001120 101.6297  37.9990 15.75135325  4658
STARLINK-36821          
1 67880U 26035B   26074.25001157  .00047035  00000+0  31486-3 0  9998
2 67880  97.2861   6.9082 0001055  95.1787  60.4588 15.75162241  4657
STARLINK-36808          
1 67881U 26035C   26074.25001157  .00203093  00000+0  10394-2 0  9991
2 67881  97.2872   6.9078 0001315  92.9216  70.8029 15.80754627  4652
STARLINK-36817          
1 67882U 26035D   26074.25001157  .00124040  00000+0  64002-3 0  9992
2 67882  97.2875   6.9118 0001235 138.1691  38.3764 15.80786260  4655
STARLINK-36856          
1 67883U 26035E   26074.25001157  .00171399  00000+0  87965-3 0  9995
2 67883  97.2873   6.9101 0001090 132.2569  40.0085 15.80777217  4652
STARLINK-36842          
1 67884U 26035F   26074.25001157 -.00670785  00000+0 -47560-2 0  9997
2 67884  97.2860   6.9128 0001456  89.0481  82.3013 15.75683443  4657
STARLINK-36826          
1 67885U 26035G   26074.25001157  .00211439  00000+0  10812-2 0  9993
2 67885  97.2876   6.9153 0001155  55.2695 129.8272 15.80752353  4658
STARLINK-36390          
1 67886U 26035H   26074.25001157 -.01881397  00000+0 -13453-1 0  9996
2 67886  97.2863   6.9169 0001534 115.9051  66.6039 15.76817696  4705
STARLINK-36368          
1 67887U 26035J   26074.25001157  .00185880  00000+0  95361-3 0  9998
2 67887  97.2874   6.9182 0001537 121.6031  72.0587 15.80747141  4653
STARLINK-36801          
1 67888U 26035K   26074.25001157  .00241568  00000+0  12315-2 0  9992
2 67888  97.2877   6.9196 0001453 121.4119  76.5046 15.80740957  4651
STARLINK-36372          
1 67889U 26035L   26074.27704016  .00453234  00000+0  22349-2 0  9992
2 67889  97.2846   6.9487 0001932  44.1574 315.9848 15.80926940  4725
STARLINK-36363          
1 67890U 26035M   26074.25001157 -.01878578  00000+0 -12573-1 0  9990
2 67890  97.2861   6.9211 0002054 104.7031  94.8098 15.78280901  4655
STARLINK-36816          
1 67891U 26035N   26074.26726208  .00402787  00000+0  20045-2 0  9999
2 67891  97.2859   6.9594 0001161  11.4749 348.6546 15.80853647  4727
